start=new Date('2022-05-02T00:00:00.000Z').valueOf();
sats=[{"REF_FRAME":"TEME","FILE":"3424759","CENTER_NAME":"EARTH","OBJECT_TYPE":"PAYLOAD","MEAN_ANOMALY":"289.6277","REV_AT_EPOCH":"5164","ECCENTRICITY":"0.00014320","OBJECT_ID":"2021-044AK","GP_ID":"202473540","INCLINATION":"53.0536","MEAN_MOTION_DDOT":"0.0000000000000","OBJECT_NAME":"STARLINK-2745","EPHEMERIS_TYPE":"0","COUNTRY_CODE":"US","TLE_LINE2":"2 48671  53.0536 311.8430 0001432  70.4866 289.6277 15.06376005 51641","PERIAPSIS":"546.295","SITE":"AFETR","LAUNCH_DATE":"2021-05-26","TLE_LINE1":"1 48671U 21044AK  22121.81021677 -.00000317  00000-0 -24100-5 0  9992","DECAY_DATE":null,"MEAN_MOTION_DOT":"-0.00000317","MEAN_MOTION":"15.06376005","MEAN_ELEMENT_THEORY":"SGP4","SEMIMAJOR_AXIS":"6925.422","APOAPSIS":"548.279","RCS_SIZE":"LARGE","ARG_OF_PERICENTER":"70.4866","TIME_SYSTEM":"UTC","RA_OF_ASC_NODE":"311.8430","BSTAR":"-0.00000241000000","CLASSIFICATION_TYPE":"U","EPOCH":"2022-05-01T19:26:42.728928","NORAD_CAT_ID":"48671","ELEMENT_SET_NO":"999","PERIOD":"95.594"},{"RA_OF_ASC_NODE":"311.8598","BSTAR":"0.00010776000000","ARG_OF_PERICENTER":"84.2241","TIME_SYSTEM":"UTC","APOAPSIS":"548.251","RCS_SIZE":"LARGE","SEMIMAJOR_AXIS":"6925.385","MEAN_MOTION":"15.06388078","MEAN_ELEMENT_THEORY":"SGP4","ELEMENT_SET_NO":"999","PERIOD":"95.593","NORAD_CAT_ID":"48672","EPOCH":"2022-05-01T19:21:23.887872","CLASSIFICATION_TYPE":"U","MEAN_MOTION_DDOT":"0.0000000000000","OBJECT_NAME":"STARLINK-2705","INCLINATION":"53.0571","GP_ID":"202473783","OBJECT_ID":"2021-044AL","REV_AT_EPOCH":"5164","ECCENTRICITY":"0.00014450","CENTER_NAME":"EARTH","OBJECT_TYPE":"PAYLOAD","MEAN_ANOMALY":"275.8913","FILE":"3424759","REF_FRAME":"TEME","MEAN_MOTION_DOT":"0.00001323","TLE_LINE1":"1 48672U 21044AL  22121.80652648  .00001323  00000-0  10776-3 0  9998","DECAY_DATE":null,"LAUNCH_DATE":"2021-05-26","PERIAPSIS":"546.249","TLE_LINE2":"2 48672  53.0571 311.8598 0001445  84.2241 275.8913 15.06388078 51647","SITE":"AFETR","COUNTRY_CODE":"US","EPHEMERIS_TYPE":"0"},{"ECCENTRICITY":"0.00016060","REV_AT_EPOCH":"5163","OBJECT_TYPE":"PAYLOAD","MEAN_ANOMALY":"284.0979","CENTER_NAME":"EARTH","FILE":"3424759","REF_FRAME":"TEME","OBJECT_NAME":"STARLINK-2711","MEAN_MOTION_DDOT":"0.0000000000000","INCLINATION":"53.0565","GP_ID":"202472540","OBJECT_ID":"2021-044AM","LAUNCH_DATE":"2021-05-26","SITE":"AFETR","PERIAPSIS":"546.132","TLE_LINE2":"2 48673  53.0565 312.1646 0001606  76.0189 284.0979 15.06389870 51632","EPHEMERIS_TYPE":"0","COUNTRY_CODE":"US","MEAN_MOTION_DOT":"0.00000265","DECAY_DATE":null,"TLE_LINE1":"1 48673U 21044AM  22121.73649776  .00000265  00000-0  36670-4 0  9995","SEMIMAJOR_AXIS":"6925.380","MEAN_ELEMENT_THEORY":"SGP4","MEAN_MOTION":"15.06389870","BSTAR":"0.00003667000000","RA_OF_ASC_NODE":"312.1646","ARG_OF_PERICENTER":"76.0189","TIME_SYSTEM":"UTC","RCS_SIZE":"LARGE","APOAPSIS":"548.357","EPOCH":"2022-05-01T17:40:33.406464","CLASSIFICATION_TYPE":"U","PERIOD":"95.593","ELEMENT_SET_NO":"999","NORAD_CAT_ID":"48673"},{"LAUNCH_DATE":"2021-05-26","SITE":"AFETR","TLE_LINE2":"2 48674  53.0560 312.1834 0001521  72.9838 287.1317 15.06381696 51637","PERIAPSIS":"546.216","COUNTRY_CODE":"US","EPHEMERIS_TYPE":"0","MEAN_MOTION_DOT":"-0.00000061","TLE_LINE1":"1 48674U 21044AN  22121.73281688 -.00000061  00000-0  14809-4 0  9995","DECAY_DATE":null,"ECCENTRICITY":"0.00015210","REV_AT_EPOCH":"5163","MEAN_ANOMALY":"287.1317","OBJECT_TYPE":"PAYLOAD","CENTER_NAME":"EARTH","FILE":"3424759","REF_FRAME":"TEME","OBJECT_NAME":"STARLINK-2712","MEAN_MOTION_DDOT":"0.0000000000000","INCLINATION":"53.0560","GP_ID":"202473792","OBJECT_ID":"2021-044AN","EPOCH":"2022-05-01T17:35:15.378432","CLASSIFICATION_TYPE":"U","PERIOD":"95.593","ELEMENT_SET_NO":"999","NORAD_CAT_ID":"48674","SEMIMAJOR_AXIS":"6925.405","MEAN_ELEMENT_THEORY":"SGP4","MEAN_MOTION":"15.06381696","BSTAR":"0.00001480900000","RA_OF_ASC_NODE":"312.1834","ARG_OF_PERICENTER":"72.9838","TIME_SYSTEM":"UTC","RCS_SIZE":"LARGE","APOAPSIS":"548.323"},{"EPOCH":"2022-05-01T19:05:29.376096","CLASSIFICATION_TYPE":"U","ELEMENT_SET_NO":"999","PERIOD":"95.593","NORAD_CAT_ID":"48675","MEAN_MOTION":"15.06385540","MEAN_ELEMENT_THEORY":"SGP4","SEMIMAJOR_AXIS":"6925.393","ARG_OF_PERICENTER":"72.6932","TIME_SYSTEM":"UTC","APOAPSIS":"548.246","RCS_SIZE":"LARGE","RA_OF_ASC_NODE":"311.9071","BSTAR":"0.00008070100000","TLE_LINE2":"2 48675  53.0554 311.9071 0001427  72.6932 287.4213 15.06385540 51649","PERIAPSIS":"546.270","SITE":"AFETR","COUNTRY_CODE":"US","EPHEMERIS_TYPE":"0","LAUNCH_DATE":"2021-05-26","DECAY_DATE":null,"TLE_LINE1":"1 48675U 21044AP  22121.79547889  .00000920  00000-0  80701-4 0  9997","MEAN_MOTION_DOT":"0.00000920","FILE":"3424759","REF_FRAME":"TEME","REV_AT_EPOCH":"5164","ECCENTRICITY":"0.00014270","CENTER_NAME":"EARTH","OBJECT_TYPE":"PAYLOAD","MEAN_ANOMALY":"287.4213","GP_ID":"202474040","OBJECT_ID":"2021-044AP","MEAN_MOTION_DDOT":"0.0000000000000","OBJECT_NAME":"STARLINK-2737","INCLINATION":"53.0554"},{"OBJECT_ID":"2021-044AQ","GP_ID":"202474283","INCLINATION":"53.0550","OBJECT_NAME":"STARLINK-2746","MEAN_MOTION_DDOT":"0.0000000000000","REF_FRAME":"TEME","FILE":"3424759","MEAN_ANOMALY":"288.0043","OBJECT_TYPE":"PAYLOAD","CENTER_NAME":"EARTH","ECCENTRICITY":"0.00015470","REV_AT_EPOCH":"5164","DECAY_DATE":null,"TLE_LINE1":"1 48676U 21044AQ  22121.79178388  .00001525  00000-0  12129-3 0  9992","MEAN_MOTION_DOT":"0.00001525","EPHEMERIS_TYPE":"0","COUNTRY_CODE":"US","SITE":"AFETR","TLE_LINE2":"2 48676  53.0550 311.9239 0001547  72.1114 288.0043 15.06390491 51641","PERIAPSIS":"546.171","LAUNCH_DATE":"2021-05-26","RCS_SIZE":"LARGE","APOAPSIS":"548.314","ARG_OF_PERICENTER":"72.1114","TIME_SYSTEM":"UTC","BSTAR":"0.00012129000000","RA_OF_ASC_NODE":"311.9239","MEAN_ELEMENT_THEORY":"SGP4","MEAN_MOTION":"15.06390491","SEMIMAJOR_AXIS":"6925.378","NORAD_CAT_ID":"48676","PERIOD":"95.593","ELEMENT_SET_NO":"999","CLASSIFICATION_TYPE":"U","EPOCH":"2022-05-01T19:00:10.127232"},{"MEAN_MOTION_DOT":"0.00000961","TLE_LINE1":"1 48677U 21044AR  22121.78810620  .00000961  00000-0  83425-4 0  9995","DECAY_DATE":null,"LAUNCH_DATE":"2021-05-26","PERIAPSIS":"546.191","TLE_LINE2":"2 48677  53.0545 311.9369 0001504  78.3158 281.8000 15.06393882 51640","SITE":"AFETR","EPHEMERIS_TYPE":"0","COUNTRY_CODE":"US","MEAN_MOTION_DDOT":"0.0000000000000","OBJECT_NAME":"STARLINK-2719","INCLINATION":"53.0545","GP_ID":"202473041","OBJECT_ID":"2021-044AR","REV_AT_EPOCH":"5164","ECCENTRICITY":"0.00015040","CENTER_NAME":"EARTH","OBJECT_TYPE":"PAYLOAD","MEAN_ANOMALY":"281.8000","FILE":"3424759","REF_FRAME":"TEME","ELEMENT_SET_NO":"999","PERIOD":"95.593","NORAD_CAT_ID":"48677","EPOCH":"2022-05-01T18:54:52.375680","CLASSIFICATION_TYPE":"U","RA_OF_ASC_NODE":"311.9369","BSTAR":"0.00008342500000","ARG_OF_PERICENTER":"78.3158","TIME_SYSTEM":"UTC","APOAPSIS":"548.274","RCS_SIZE":"LARGE","SEMIMAJOR_AXIS":"6925.367","MEAN_MOTION":"15.06393882","MEAN_ELEMENT_THEORY":"SGP4"},{"NORAD_CAT_ID":"48678","ELEMENT_SET_NO":"999","PERIOD":"95.593","CLASSIFICATION_TYPE":"U","EPOCH":"2022-05-01T20:25:05.858400","APOAPSIS":"548.367","RCS_SIZE":"LARGE","ARG_OF_PERICENTER":"73.6899","TIME_SYSTEM":"UTC","RA_OF_ASC_NODE":"311.6558","BSTAR":"0.00010860000000","MEAN_MOTION":"15.06393290","MEAN_ELEMENT_THEORY":"SGP4","SEMIMAJOR_AXIS":"6925.369","DECAY_DATE":null,"TLE_LINE1":"1 48678U 21044AS  22121.85076225  .00001336  00000-0  10860-3 0  9998","MEAN_MOTION_DOT":"0.00001336","COUNTRY_CODE":"US","EPHEMERIS_TYPE":"0","PERIAPSIS":"546.101","TLE_LINE2":"2 48678  53.0545 311.6558 0001636  73.6899 286.4270 15.06393290 51658","SITE":"AFETR","LAUNCH_DATE":"2021-05-26","OBJECT_ID":"2021-044AS","GP_ID":"202473292","INCLINATION":"53.0545","MEAN_MOTION_DDOT":"0.0000000000000","OBJECT_NAME":"STARLINK-2615","REF_FRAME":"TEME","FILE":"3424759","CENTER_NAME":"EARTH","OBJECT_TYPE":"PAYLOAD","MEAN_ANOMALY":"286.4270","REV_AT_EPOCH":"5165","ECCENTRICITY":"0.00016360"},{"BSTAR":"0.00020129000000","RA_OF_ASC_NODE":"311.6773","RCS_SIZE":"LARGE","APOAPSIS":"548.277","TIME_SYSTEM":"UTC","ARG_OF_PERICENTER":"78.4316","SEMIMAJOR_AXIS":"6925.374","MEAN_ELEMENT_THEORY":"SGP4","MEAN_MOTION":"15.06391850","NORAD_CAT_ID":"48679","PERIOD":"95.593","ELEMENT_SET_NO":"999","CLASSIFICATION_TYPE":"U","EPOCH":"2022-05-01T20:19:47.600544","INCLINATION":"53.0545","OBJECT_NAME":"STARLINK-2648","MEAN_MOTION_DDOT":"0.0000000000000","OBJECT_ID":"2021-044AT","GP_ID":"202473541","OBJECT_TYPE":"PAYLOAD","MEAN_ANOMALY":"281.6841","CENTER_NAME":"EARTH","ECCENTRICITY":"0.00015000","REV_AT_EPOCH":"5165","REF_FRAME":"TEME","FILE":"3424759","MEAN_MOTION_DOT":"0.00002717","DECAY_DATE":null,"TLE_LINE1":"1 48679U 21044AT  22121.84707871  .00002717  00000-0  20129-3 0  9999","LAUNCH_DATE":"2021-05-26","EPHEMERIS_TYPE":"0","COUNTRY_CODE":"US","SITE":"AFETR","PERIAPSIS":"546.200","TLE_LINE2":"2 48679  53.0545 311.6773 0001500  78.4316 281.6841 15.06391850 51656"},{"MEAN_MOTION_DOT":"0.00001169","TLE_LINE1":"1 48680U 21044AU  22121.84338708  .00001169  00000-0  97367-4 0  9999","DECAY_DATE":null,"LAUNCH_DATE":"2021-05-26","EPHEMERIS_TYPE":"0","COUNTRY_CODE":"US","TLE_LINE2":"2 48680  53.0569 311.6933 0001652  63.0480 297.0677 15.06388995 51656","PERIAPSIS":"546.103","SITE":"AFETR","INCLINATION":"53.0569","MEAN_MOTION_DDOT":"0.0000000000000","OBJECT_NAME":"STARLINK-2649","OBJECT_ID":"2021-044AU","GP_ID":"202473784","CENTER_NAME":"EARTH","OBJECT_TYPE":"PAYLOAD","MEAN_ANOMALY":"297.0677","REV_AT_EPOCH":"5165","ECCENTRICITY":"0.00016520","REF_FRAME":"TEME","FILE":"3424759","NORAD_CAT_ID":"48680","ELEMENT_SET_NO":"999","PERIOD":"95.593","CLASSIFICATION_TYPE":"U","EPOCH":"2022-05-01T20:14:28.643712","RA_OF_ASC_NODE":"311.6933","BSTAR":"0.00009736700000","APOAPSIS":"548.391","RCS_SIZE":"LARGE","ARG_OF_PERICENTER":"63.0480","TIME_SYSTEM":"UTC","SEMIMAJOR_AXIS":"6925.382","MEAN_MOTION":"15.06388995","MEAN_ELEMENT_THEORY":"SGP4"}];
